CTC1_L_00263016-03
1 10062U 24935AX  26075.70032407  .00000000  00000+0  00000-0 0  9994
2 10062  75.0000 180.0000 0000000   0.0000   0.0000 15.38683946    16
CTC1_L_00263016-04
1 10063U 26396AS  26075.70032407  .00000000  00000+0  00000-0 0  9998
2 10063  75.0000 180.0000 0000000   0.0000  90.0000 15.38683946    16
CTC1_L_00263017-01
1 10064U 24754DJ  26075.70032407  .00000000  00000+0  00000-0 0  9995
2 10064  75.0000 192.0000 0000000   0.0000 192.0000 15.38683946    13
CTC1_L_00263017-02
1 10065U 23712QZ  26075.70032407  .00000000  00000+0  00000-0 0  9999
2 10065  75.0000 192.0000 0000000   0.0000 282.0000 15.38683946    14
CTC1_L_00263017-03
1 10066U 22641MM  26075.70032407  .00000000  00000+0  00000-0 0  9990
2 10066  75.0000 192.0000 0000000   0.0000  12.0000 15.38683946    16
CTC1_L_00263017-04
1 10067U 25852UG  26075.70032407  .00000000  00000+0  00000-0 0  9998
2 10067  75.0000 192.0000 0000000   0.0000 102.0000 15.38683946    17
CTC1_L_00263018-01
1 10068U 24655KJ  26075.70032407  .00000000  00000+0  00000-0 0  9999
2 10068  75.0000 204.0000 0000000   0.0000 204.0000 15.38683946    15
CTC1_L_00263018-02
1 10069U 26979VX  26075.70032407  .00000000  00000+0  00000-0 0  9991
2 10069  75.0000 204.0000 0000000   0.0000 294.0000 15.38683946    15
CTC1_L_00263018-03
1 10070U 25820IV  26075.70032407  .00000000  00000+0  00000-0 0  9997
2 10070  75.0000 204.0000 0000000   0.0000  24.0000 15.38683946    18
CTC1_L_00263018-04
1 10071U 22741NF  26075.70032407  .00000000  00000+0  00000-0 0  9997
2 10071  75.0000 204.0000 0000000   0.0000 114.0000 15.38683946    19
CTC1_L_00263019-01
1 10072U 26055PO  26075.70032407  .00000000  00000+0  00000-0 0  9990
2 10072  75.0000 216.0000 0000000   0.0000 216.0000 15.38683946    16
CTC1_L_00263019-02
1 10073U 25987CX  26075.70032407  .00000000  00000+0  00000-0 0  9994
2 10073  75.0000 216.0000 0000000   0.0000 306.0000 15.38683946    17
CTC1_L_00263019-03
1 10074U 24078PS  26075.70032407  .00000000  00000+0  00000-0 0  9995
2 10074  75.0000 216.0000 0000000   0.0000  36.0000 15.38683946    18
CTC1_L_00263019-04
1 10075U 25523JX  26075.70032407  .00000000  00000+0  00000-0 0  9992
2 10075  75.0000 216.0000 0000000   0.0000 126.0000 15.38683946    19
CTC1_L_00263020-01
1 10076U 22330VD  26075.70032407  .00000000  00000+0  00000-0 0  9996
2 10076  75.0000 228.0000 0000000   0.0000 228.0000 15.38683946    16
CTC1_L_00263020-02
1 10077U 23860RK  26075.70032407  .00000000  00000+0  00000-0 0  9996
2 10077  75.0000 228.0000 0000000   0.0000 318.0000 15.38683946    17
CTC1_L_00263020-03
1 10078U 26374UB  26075.70032407  .00000000  00000+0  00000-0 0  9990
2 10078  75.0000 228.0000 0000000   0.0000  48.0000 15.38683946    18
CTC1_L_00263020-04
1 10079U 23010FU  26075.70032407  .00000000  00000+0  00000-0 0  9995
2 10079  75.0000 228.0000 0000000   0.0000 138.0000 15.38683946    19
CTC1_L_00263021-01
1 10080U 24813DD  26075.70032407  .00000000  00000+0  00000-0 0  9999
2 10080  75.0000 240.0000 0000000   0.0000 240.0000 15.38683946    19
CTC1_L_00263021-02
1 10081U 22013LR  26075.70032407  .00000000  00000+0  00000-0 0  9990
2 10081  75.0000 240.0000 0000000   0.0000 330.0000 15.38683946    10
CTC1_L_00263021-03
1 10082U 26560WX  26075.70032407  .00000000  00000+0  00000-0 0  9992
2 10082  75.0000 240.0000 0000000   0.0000  60.0000 15.38683946    11
CTC1_L_00263021-04
1 10083U 26838OA  26075.70032407  .00000000  00000+0  00000-0 0  9991
2 10083  75.0000 240.0000 0000000   0.0000 150.0000 15.38683946    12
CTC1_L_00263022-01
1 10084U 22687IN  26075.70032407  .00000000  00000+0  00000-0 0  9990
2 10084  75.0000 252.0000 0000000   0.0000 252.0000 15.38683946    19
CTC1_L_00263022-02
1 10085U 25643MA  26075.70032407  .00000000  00000+0  00000-0 0  9996
2 10085  75.0000 252.0000 0000000   0.0000 342.0000 15.38683946    10
CTC1_L_00263022-03
1 10086U 22249WJ  26075.70032407  .00000000  00000+0  00000-0 0  9996
2 10086  75.0000 252.0000 0000000   0.0000  72.0000 15.38683946    11
CTC1_L_00263022-04
1 10087U 26444HJ  26075.70032407  .00000000  00000+0  00000-0 0  9998
2 10087  75.0000 252.0000 0000000   0.0000 162.0000 15.38683946    12
CTC1_L_00263023-01
1 10088U 23395PI  26075.70032407  .00000000  00000+0  00000-0 0  9991
2 10088  75.0000 264.0000 0000000   0.0000 264.0000 15.38683946    19
CTC1_L_00263023-02
1 10089U 26093AR  26075.70032407  .00000000  00000+0  00000-0 0  9990
2 10089  75.0000 264.0000 0000000   0.0000 354.0000 15.38683946    10
CTC1_L_00263023-03
1 10090U 26938HO  26075.70032407  .00000000  00000+0  00000-0 0  9990
2 10090  75.0000 264.0000 0000000   0.0000  84.0000 15.38683946    12
CTC1_L_00263023-04
1 10091U 24256NE  26075.70032407  .00000000  00000+0  00000-0 0  9992
2 10091  75.0000 264.0000 0000000   0.0000 174.0000 15.38683946    13
CTC1_L_00263024-01
1 10092U 24907SO  26075.70032407  .00000000  00000+0  00000-0 0  9996
2 10092  75.0000 276.0000 0000000   0.0000 276.0000 15.38683946    10
CTC1_L_00263024-02
1 10093U 22931VI  26075.70032407  .00000000  00000+0  00000-0 0  9992
2 10093  75.0000 276.0000 0000000   0.0000   6.0000 15.38683946    12
CTC1_L_00263024-03
1 10094U 24865MD  26075.70032407  .00000000  00000+0  00000-0 0  9991
2 10094  75.0000 276.0000 0000000   0.0000  96.0000 15.38683946    12
CTC1_L_00263024-04
1 10095U 22184WF  26075.70032407  .00000000  00000+0  00000-0 0  9994
2 10095  75.0000 276.0000 0000000   0.0000 186.0000 15.38683946    13
CTC1_L_00263025-01
1 10096U 24855MY  26075.70032407  .00000000  00000+0  00000-0 0  9992
2 10096  75.0000 288.0000 0000000   0.0000 288.0000 15.38683946    10
CTC1_L_00263025-02
1 10097U 25205CM  26075.70032407  .00000000  00000+0  00000-0 0  9993
2 10097  75.0000 288.0000 0000000   0.0000  18.0000 15.38683946    12
CTC1_L_00263025-03
1 10098U 22219ZD  26075.70032407  .00000000  00000+0  00000-0 0  9996
2 10098  75.0000 288.0000 0000000   0.0000 108.0000 15.38683946    13
CTC1_L_00263025-04
1 10099U 23218UO  26075.70032407  .00000000  00000+0  00000-0 0  9997
2 10099  75.0000 288.0000 0000000   0.0000 198.0000 15.38683946    13
CTC1_L_00263026-01
1 10100U 23632JS  26075.70032407  .00000000  00000+0  00000-0 0  9990
2 10100  75.0000 300.0000 0000000   0.0000 300.0000 15.38683946    16
CTC1_L_00263026-02
1 10101U 23636QL  26075.70032407  .00000000  00000+0  00000-0 0  9995
2 10101  75.0000 300.0000 0000000   0.0000  30.0000 15.38683946    17
CTC1_L_00263026-03
1 10102U 23385NG  26075.70032407  .00000000  00000+0  00000-0 0  9997
2 10102  75.0000 300.0000 0000000   0.0000 120.0000 15.38683946    18
CTC1_L_00263026-04
1 10103U 24815XM  26075.70032407  .00000000  00000+0  00000-0 0  9997
2 10103  75.0000 300.0000 0000000   0.0000 210.0000 15.38683946    19
CTC1_L_00263027-01
1 10104U 26635NE  26075.70032407  .00000000  00000+0  00000-0 0  9990
2 10104  75.0000 312.0000 0000000   0.0000 312.0000 15.38683946    16
CTC1_L_00263027-02
1 10105U 24755GH  26075.70032407  .00000000  00000+0  00000-0 0  9992
2 10105  75.0000 312.0000 0000000   0.0000  42.0000 15.38683946    17
CTC1_L_00263027-03
1 10106U 26171E   26075.70032407  .00000000  00000+0  00000-0 0  9997
2 10106  75.0000 312.0000 0000000   0.0000 132.0000 15.38683946    18
CTC1_L_00263027-04
1 10107U 22985EE  26075.70032407  .00000000  00000+0  00000-0 0  9997
2 10107  75.0000 312.0000 0000000   0.0000 222.0000 15.38683946    19
CTC1_L_00263028-01
1 10108U 24032QU  26075.70032407  .00000000  00000+0  00000-0 0  9993
2 10108  75.0000 324.0000 0000000   0.0000 324.0000 15.38683946    16
CTC1_L_00263028-02
1 10109U 22449XU  26075.70032407  .00000000  00000+0  00000-0 0  9994
2 10109  75.0000 324.0000 0000000   0.0000  54.0000 15.38683946    17
CTC1_L_00263028-03
1 10110U 23187SO  26075.70032407  .00000000  00000+0  00000-0 0  9996
2 10110  75.0000 324.0000 0000000   0.0000 144.0000 15.38683946    19
CTC1_L_00263028-04
1 10111U 24714KM  26075.70032407  .00000000  00000+0  00000-0 0  9994
2 10111  75.0000 324.0000 0000000   0.0000 234.0000 15.38683946    10
CTC1_L_00263029-01
1 10112U 25346YC  26075.70032407  .00000000  00000+0  00000-0 0  9997
2 10112  75.0000 336.0000 0000000   0.0000 336.0000 15.38683946    17
CTC1_L_00263029-02
1 10113U 23365NF  26075.70032407  .00000000  00000+0  00000-0 0  9997
2 10113  75.0000 336.0000 0000000   0.0000  66.0000 15.38683946    18
CTC1_L_00263029-03
1 10114U 22641FY  26075.70032407  .00000000  00000+0  00000-0 0  9994
2 10114  75.0000 336.0000 0000000   0.0000 156.0000 15.38683946    19
CTC1_L_00263029-04
1 10115U 26996VA  26075.70032407  .00000000  00000+0  00000-0 0  9992
2 10115  75.0000 336.0000 0000000   0.0000 246.0000 15.38683946    10
CTC1_L_00263030-01
1 10116U 23310AV  26075.70032407  .00000000  00000+0  00000-0 0  9990
2 10116  75.0000 348.0000 0000000   0.0000 348.0000 15.38683946    17
CTC1_L_00263030-02
1 10117U 26407ES  26075.70032407  .00000000  00000+0  00000-0 0  9991
2 10117  75.0000 348.0000 0000000   0.0000  78.0000 15.38683946    18
CTC1_L_00263030-03
1 10118U 24581CQ  26075.70032407  .00000000  00000+0  00000-0 0  9993
2 10118  75.0000 348.0000 0000000   0.0000 168.0000 15.38683946    19
CTC1_L_00263030-04
1 10119U 24444YM  26075.70032407  .00000000  00000+0  00000-0 0  9992
2 10119  75.0000 348.0000 0000000   0.0000 258.0000 15.38683946    10
